{"type": "FeatureCollection", "features": [ {"type": "Feature", "properties": {"norad_id": 39591, "name": "COSMOS 2251 DEB", "group": "cosmos-2251-debris", "lat": 68.02024759651215, "lon": -73.35753817689573, "alt_km": 742.1707577980042, "timestamp": "2025-12-15T14:57:58.209819+00:00", "meta": {"OBJECT_NAME": "COSMOS 2251 DEB", "OBJECT_ID": "1993-036BUW", "EPOCH": "2025-12-14T02:17:56.256000", "MEAN_MOTION": 14.4181661, "ECCENTRICITY": 0.00292248, "INCLINATION": 74.0214, "RA_OF_ASC_NODE": 244.2482, "ARG_OF_PERICENTER": 357.0219, "MEAN_ANOMALY": 70.474, "EPHEMERIS_TYPE": 0, "CLASSIFICATION_TYPE": "U", "NORAD_CAT_ID": 39591, "ELEMENT_SET_NO": 999, "REV_AT_EPOCH": 61796, "BSTAR": 0.00040583296, "MEAN_MOTION_DOT": 1.307e-05, "MEAN_MOTION_DDOT": 0}, "tle": {"line1": "1 39591U 93036BUW 25348.09579000  .00001307  00000+0  40583-3 0  9993", "line2": "2 39591  74.0214 244.2482 0029224 357.0219  70.4740 14.41816610617962"}}, "geometry": {"type": "Point", "coordinates": [-73.35753817689573, 68.02024759651215]}}, {"type": "Feature", "properties": {"norad_id": 40218, "name": "COSMOS 2251 DEB", "group": "cosmos-2251-debris", "lat": -32.3051080832699, "lon": -126.94929657722302, "alt_km": 746.9151738877117, "timestamp": "2025-12-15T14:57:58.209828+00:00", "meta": {"OBJECT_NAME": "COSMOS 2251 DEB", "OBJECT_ID": "1993-036BUX", "EPOCH": "2025-12-14T10:48:31.251744", "MEAN_MOTION": 14.41597705, "ECCENTRICITY": 0.00168728, "INCLINATION": 74.0298, "RA_OF_ASC_NODE": 245.6562, "ARG_OF_PERICENTER": 328.6, "MEAN_ANOMALY": 31.4147, "EPHEMERIS_TYPE": 0, "CLASSIFICATION_TYPE": "U", "NORAD_CAT_ID": 40218, "ELEMENT_SET_NO": 999, "REV_AT_EPOCH": 58886, "BSTAR": 0.00046023204, "MEAN_MOTION_DOT": 1.474e-05, "MEAN_MOTION_DDOT": 0}, "tle": {"line1": "1 40218U 93036BUX 25348.45036171  .00001474  00000+0  46023-3 0  9998", "line2": "2 40218  74.0298 245.6562 0016872 328.6000  31.4147 14.41597705588868"}}, "geometry": {"type": "Point", "coordinates": [-126.94929657722302, -32.3051080832699]}}, {"type": "Feature", "properties": {"norad_id": 40223, "name": "COSMOS 2251 DEB", "group": "cosmos-2251-debris", "lat": -38.82244260085815, "lon": -83.82220126731157, "alt_km": 556.3245509862945, "timestamp": "2025-12-15T14:57:58.209837+00:00", "meta": {"OBJECT_NAME": "COSMOS 2251 DEB", "OBJECT_ID": "1993-036BVC", "EPOCH": "2025-12-14T00:26:13.435584", "MEAN_MOTION": 15.03818233, "ECCENTRICITY": 0.00153317, "INCLINATION": 73.9371, "RA_OF_ASC_NODE": 86.0727, "ARG_OF_PERICENTER": 290.315, "MEAN_ANOMALY": 242.4766, "EPHEMERIS_TYPE": 0, "CLASSIFICATION_TYPE": "U", "NORAD_CAT_ID": 40223, "ELEMENT_SET_NO": 999, "REV_AT_EPOCH": 59393, "BSTAR": 0.0044494793, "MEAN_MOTION_DOT": 0.00061853, "MEAN_MOTION_DDOT": 0}, "tle": {"line1": "1 40223U 93036BVC 25348.01821106  .00061853  00000+0  44495-2 0  9993", "line2": "2 40223  73.9371  86.0727 0015331 290.3150 242.4766 15.03818233593930"}}, "geometry": {"type": "Point", "coordinates": [-83.82220126731157, -38.82244260085815]}}, {"type": "Feature", "properties": {"norad_id": 40228, "name": "COSMOS 2251 DEB", "group": "cosmos-2251-debris", "lat": -28.824547911028546, "lon": 84.25133146447493, "alt_km": 765.3426000659401, "timestamp": "2025-12-15T14:57:58.209847+00:00", "meta": {"OBJECT_NAME": "COSMOS 2251 DEB", "OBJECT_ID": "1993-036BVH", "EPOCH": "2025-12-11T12:30:37.061856", "MEAN_MOTION": 14.40990348, "ECCENTRICITY": 0.00239974, "INCLINATION": 74.0549, "RA_OF_ASC_NODE": 262.7798, "ARG_OF_PERICENTER": 324.5031, "MEAN_ANOMALY": 213.1591, "EPHEMERIS_TYPE": 0, "CLASSIFICATION_TYPE": "U", "NORAD_CAT_ID": 40228, "ELEMENT_SET_NO": 999, "REV_AT_EPOCH": 58903, "BSTAR": 0.00055464719, "MEAN_MOTION_DOT": 1.762e-05, "MEAN_MOTION_DDOT": 0}, "tle": {"line1": "1 40228U 93036BVH 25345.52126229  .00001762  00000+0  55465-3 0  9998", "line2": "2 40228  74.0549 262.7798 0023997 324.5031 213.1591 14.40990348589035"}}, "geometry": {"type": "Point", "coordinates": [84.25133146447493, -28.824547911028546]}}, {"type": "Feature", "properties": {"norad_id": 40230, "name": "COSMOS 2251 DEB", "group": "cosmos-2251-debris", "lat": 71.56399787381751, "lon": -17.64789620426937, "alt_km": 734.193421028046, "timestamp": "2025-12-15T14:57:58.209856+00:00", "meta": {"OBJECT_NAME": "COSMOS 2251 DEB", "OBJECT_ID": "1993-036BVK", "EPOCH": "2025-12-14T22:00:49.266432", "MEAN_MOTION": 14.49332961, "ECCENTRICITY": 0.00191764, "INCLINATION": 74.0428, "RA_OF_ASC_NODE": 222.8045, "ARG_OF_PERICENTER": 280.5439, "MEAN_ANOMALY": 94.8076, "EPHEMERIS_TYPE": 0, "CLASSIFICATION_TYPE": "U", "NORAD_CAT_ID": 40230, "ELEMENT_SET_NO": 999, "REV_AT_EPOCH": 59003, "BSTAR": 0.00050113522, "MEAN_MOTION_DOT": 1.891e-05, "MEAN_MOTION_DDOT": 0}, "tle": {"line1": "1 40230U 93036BVK 25348.91723688  .00001891  00000+0  50114-3 0  9998", "line2": "2 40230  74.0428 222.8045 0019176 280.5439  94.8076 14.49332961590037"}}, "geometry": {"type": "Point", "coordinates": [-17.64789620426937, 71.56399787381751]}}, {"type": "Feature", "properties": {"norad_id": 40233, "name": "COSMOS 2251 DEB", "group": "cosmos-2251-debris", "lat": 16.542542026322202, "lon": 102.49521980560021, "alt_km": 727.2090883684377, "timestamp": "2025-12-15T14:57:58.209865+00:00", "meta": {"OBJECT_NAME": "COSMOS 2251 DEB", "OBJECT_ID": "1993-036BVN", "EPOCH": "2025-12-12T17:44:37.201344", "MEAN_MOTION": 14.58419195, "ECCENTRICITY": 0.00452349, "INCLINATION": 73.9396, "RA_OF_ASC_NODE": 103.1069, "ARG_OF_PERICENTER": 178.0114, "MEAN_ANOMALY": 182.1239, "EPHEMERIS_TYPE": 0, "CLASSIFICATION_TYPE": "U", "NORAD_CAT_ID": 40233, "ELEMENT_SET_NO": 999, "REV_AT_EPOCH": 59137, "BSTAR": 0.0020636602, "MEAN_MOTION_DOT": 9.688e-05, "MEAN_MOTION_DDOT": 0}, "tle": {"line1": "1 40233U 93036BVN 25346.73931946  .00009688  00000+0  20637-2 0  9995", "line2": "2 40233  73.9396 103.1069 0045234 178.0114 182.1239 14.58419195591379"}}, "geometry": {"type": "Point", "coordinates": [102.49521980560021, 16.542542026322202]}}, {"type": "Feature", "properties": {"norad_id": 40236, "name": "COSMOS 2251 DEB", "group": "cosmos-2251-debris", "lat": 48.65943258498769, "lon": -60.43003840280919, "alt_km": 1275.4149149428695, "timestamp": "2025-12-15T14:57:58.209874+00:00", "meta": {"OBJECT_NAME": "COSMOS 2251 DEB", "OBJECT_ID": "1993-036BVR", "EPOCH": "2025-12-07T17:52:23.026080", "MEAN_MOTION": 13.24639967, "ECCENTRICITY": 0.05366128, "INCLINATION": 73.5349, "RA_OF_ASC_NODE": 151.6266, "ARG_OF_PERICENTER": 32.3576, "MEAN_ANOMALY": 330.9258, "EPHEMERIS_TYPE": 0, "CLASSIFICATION_TYPE": "U", "NORAD_CAT_ID": 40236, "ELEMENT_SET_NO": 999, "REV_AT_EPOCH": 53558, "BSTAR": 0.0015786255, "MEAN_MOTION_DOT": 1.455e-05, "MEAN_MOTION_DDOT": 0}, "tle": {"line1": "1 40236U 93036BVR 25341.74471095  .00001455  00000+0  15786-2 0  9991", "line2": "2 40236  73.5349 151.6266 0536612  32.3576 330.9258 13.24639967535580"}}, "geometry": {"type": "Point", "coordinates": [-60.43003840280919, 48.65943258498769]}}, {"type": "Feature", "properties": {"norad_id": 40238, "name": "COSMOS 2251 DEB", "group": "cosmos-2251-debris", "lat": -39.252060344035065, "lon": -107.26108817052463, "alt_km": 1577.7999089512577, "timestamp": "2025-12-15T14:57:58.209883+00:00", "meta": {"OBJECT_NAME": "COSMOS 2251 DEB", "OBJECT_ID": "1993-036BVT", "EPOCH": "2025-12-13T22:00:17.688960", "MEAN_MOTION": 13.25118761, "ECCENTRICITY": 0.05494159, "INCLINATION": 73.9889, "RA_OF_ASC_NODE": 61.7905, "ARG_OF_PERICENTER": 33.3831, "MEAN_ANOMALY": 330.0665, "EPHEMERIS_TYPE": 0, "CLASSIFICATION_TYPE": "U", "NORAD_CAT_ID": 40238, "ELEMENT_SET_NO": 999, "REV_AT_EPOCH": 54052, "BSTAR": 0.0015955991, "MEAN_MOTION_DOT": 1.546e-05, "MEAN_MOTION_DDOT": 0}, "tle": {"line1": "1 40238U 93036BVT 25347.91687140  .00001546  00000+0  15956-2 0  9998", "line2": "2 40238  73.9889  61.7905 0549415  33.3831 330.0665 13.25118761540524"}}, "geometry": {"type": "Point", "coordinates": [-107.26108817052463, -39.252060344035065]}}, {"type": "Feature", "properties": {"norad_id": 40239, "name": "COSMOS 2251 DEB", "group": "cosmos-2251-debris", "lat": 9.727795526420483, "lon": -86.87029214564525, "alt_km": 629.113913789005, "timestamp": "2025-12-15T14:57:58.209892+00:00", "meta": {"OBJECT_NAME": "COSMOS 2251 DEB", "OBJECT_ID": "1993-036BVU", "EPOCH": "2025-12-10T14:12:54.993024", "MEAN_MOTION": 14.6197936, "ECCENTRICITY": 0.0084758, "INCLINATION": 74.0316, "RA_OF_ASC_NODE": 279.9471, "ARG_OF_PERICENTER": 31.8637, "MEAN_ANOMALY": 148.8031, "EPHEMERIS_TYPE": 0, "CLASSIFICATION_TYPE": "U", "NORAD_CAT_ID": 40239, "ELEMENT_SET_NO": 999, "REV_AT_EPOCH": 59579, "BSTAR": 0.00074089, "MEAN_MOTION_DOT": 3.879e-05, "MEAN_MOTION_DDOT": 0}, "tle": {"line1": "1 40239U 93036BVU 25344.59230316  .00003879  00000+0  74089-3 0  9993", "line2": "2 40239  74.0316 279.9471 0084758  31.8637 148.8031 14.61979360595796"}}, "geometry": {"type": "Point", "coordinates": [-86.87029214564525, 9.727795526420483]}}, {"type": "Feature", "properties": {"norad_id": 40792, "name": "COSMOS 2251 DEB", "group": "cosmos-2251-debris", "lat": -49.67799941908445, "lon": -118.40954722969286, "alt_km": 674.5143287512192, "timestamp": "2025-12-15T14:57:58.209901+00:00", "meta": {"OBJECT_NAME": "COSMOS 2251 DEB", "OBJECT_ID": "1993-036BVV", "EPOCH": "2025-12-13T21:48:53.616096", "MEAN_MOTION": 14.67590278, "ECCENTRICITY": 0.00153774, "INCLINATION": 74.0462, "RA_OF_ASC_NODE": 45.2013, "ARG_OF_PERICENTER": 149.8992, "MEAN_ANOMALY": 27.0176, "EPHEMERIS_TYPE": 0, "CLASSIFICATION_TYPE": "U", "NORAD_CAT_ID": 40792, "ELEMENT_SET_NO": 999, "REV_AT_EPOCH": 63201, "BSTAR": 0.0011407186, "MEAN_MOTION_DOT": 6.465e-05, "MEAN_MOTION_DDOT": 0}, "tle": {"line1": "1 40792U 93036BVV 25347.90895389  .00006465  00000+0  11407-2 0  9990", "line2": "2 40792  74.0462  45.2013 0015377 149.8992  27.0176 14.67590278632011"}}, "geometry": {"type": "Point", "coordinates": [-118.40954722969286, -49.67799941908445]}}]}